ONEWEB-0035             
1 45143U 20008N   25270.56647818  .00000729  00000+0  20512-2 0  9997
2 45143  87.8739  88.6545 0001597  93.0371 267.0939 13.10372313273543
ONEWEB-0036             
1 45144U 20008P   25270.55651690  .00000587  00000+0  16445-2 0  9992
2 45144  87.8755  88.6064 0001730  72.9903 287.1414 13.10375246273970
ONEWEB-0038             
1 45145U 20008Q   25270.47909078 -.00000480  00000+0 -13909-2 0  9996
2 45145  87.8794  73.3882 0000335 205.3054 154.8058 13.11417828275893
ONEWEB-0039             
1 45146U 20008R   25268.47736326  .00000154  00000+0  40359-3 0  9994
2 45146  87.8768  89.0410 0001795  87.1473 272.9860 13.10370563273498
ONEWEB-0040             
1 45147U 20008S   25269.92156193 -.00000443  00000+0 -13067-2 0  9992
2 45147  87.8746  88.7805 0001580  86.9769 273.1540 13.10375116273381
ONEWEB-0043             
1 45149U 20008U   25269.92323443 -.00000365  00000+0 -10822-2 0  9997
2 45149  87.8742  88.7624 0001791  73.8319 286.3006 13.10375299273709
ONEWEB-0044             
1 45150U 20008V   25270.56232898  .00000724  00000+0  20372-2 0  9992
2 45150  87.8739  88.6257 0001690  76.9386 283.1930 13.10373734274089
ONEWEB-0045             
1 45151U 20008W   25270.39757529 -.00000360  00000+0 -10521-2 0  9990
2 45151  87.8806  73.3797 0001464  90.7908 269.3387 13.11418147275967
ONEWEB-0047             
1 45152U 20008X   25270.55568535  .00000526  00000+0  14711-2 0  9993
2 45152  87.8743  88.6373 0001560  83.7222 276.4083 13.10376778273800
ONEWEB-0048             
1 45153U 20008Y   25270.55070131  .00000322  00000+0  88687-3 0  9992
2 45153  87.8746  88.6643 0001622  85.9061 274.2252 13.10375423273415
ONEWEB-0049             
1 45154U 20008Z   25270.55319469  .00000517  00000+0  14435-2 0  9998
2 45154  87.8744  88.6551 0002080  78.1496 281.9864 13.10375261273635
ONEWEB-0051             
1 45155U 20008AA  25270.39586172 -.00000261  00000+0 -77193-3 0  9997
2 45155  87.8785  73.4166 0001633  93.5508 266.5807 13.11414609276644
ONEWEB-0052             
1 45156U 20008AB  25270.54821198  .00000284  00000+0  77681-3 0  9990
2 45156  87.8758  88.6085 0002127  77.6292 282.5074 13.10376904273549
ONEWEB-0053             
1 45157U 20008AC  25269.99626578 -.00000498  00000+0 -14633-2 0  9999
2 45157  87.8742  88.7710 0001386  80.1437 279.9847 13.10373914273440
ONEWEB-0054             
1 45158U 20008AD  25270.56564921  .00000673  00000+0  18907-2 0  9999
2 45158  87.8739  88.6301 0001702  88.1505 271.9818 13.10372698273637
ONEWEB-0056             
1 45159U 20008AE  25270.54654864  .00000137  00000+0  35532-3 0  9993
2 45159  87.8745  88.6317 0001657  86.7594 273.3723 13.10376731273782
ONEWEB-0057             
1 45160U 20008AF  25270.55402695  .00000383  00000+0  10615-2 0  9996
2 45160  87.8743  88.6436 0001666  80.2344 279.8971 13.10375241273956
