[{"OBJECT_NAME":"ONEWEB-0035","OBJECT_ID":"2020-008N","EPOCH":"2025-09-27T13:35:43.714752","MEAN_MOTION":13.10372313,"ECCENTRICITY":0.00015974,"INCLINATION":87.8739,"RA_OF_ASC_NODE":88.6545,"ARG_OF_PERICENTER":93.0371,"MEAN_ANOMALY":267.0939,"EPHEMERIS_TYPE":0,"CLASSIFICATION_TYPE":"U","NORAD_CAT_ID":45143,"ELEMENT_SET_NO":999,"REV_AT_EPOCH":27354,"BSTAR":0.0020511604,"MEAN_MOTION_DOT":7.29e-6,"MEAN_MOTION_DDOT":0},{"OBJECT_NAME":"ONEWEB-0036","OBJECT_ID":"2020-008P","EPOCH":"2025-09-27T13:21:23.060160","MEAN_MOTION":13.10375246,"ECCENTRICITY":0.00017301,"INCLINATION":87.8755,"RA_OF_ASC_NODE":88.6064,"ARG_OF_PERICENTER":72.9903,"MEAN_ANOMALY":287.1414,"EPHEMERIS_TYPE":0,"CLASSIFICATION_TYPE":"U","NORAD_CAT_ID":45144,"ELEMENT_SET_NO":999,"REV_AT_EPOCH":27397,"BSTAR":0.0016444972,"MEAN_MOTION_DOT":5.87e-6,"MEAN_MOTION_DDOT":0},{"OBJECT_NAME":"ONEWEB-0038","OBJECT_ID":"2020-008Q","EPOCH":"2025-09-27T11:29:53.443392","MEAN_MOTION":13.11417828,"ECCENTRICITY":3.352e-5,"INCLINATION":87.8794,"RA_OF_ASC_NODE":73.3882,"ARG_OF_PERICENTER":205.3054,"MEAN_ANOMALY":154.8058,"EPHEMERIS_TYPE":0,"CLASSIFICATION_TYPE":"U","NORAD_CAT_ID":45145,"ELEMENT_SET_NO":999,"REV_AT_EPOCH":27589,"BSTAR":-0.0013909397,"MEAN_MOTION_DOT":-4.8e-6,"MEAN_MOTION_DDOT":0},{"OBJECT_NAME":"ONEWEB-0039","OBJECT_ID":"2020-008R","EPOCH":"2025-09-25T11:27:24.185664","MEAN_MOTION":13.10370563,"ECCENTRICITY":0.00017954,"INCLINATION":87.8768,"RA_OF_ASC_NODE":89.041,"ARG_OF_PERICENTER":87.1473,"MEAN_ANOMALY":272.986,"EPHEMERIS_TYPE":0,"CLASSIFICATION_TYPE":"U","NORAD_CAT_ID":45146,"ELEMENT_SET_NO":999,"REV_AT_EPOCH":27349,"BSTAR":0.00040359409,"MEAN_MOTION_DOT":1.54e-6,"MEAN_MOTION_DDOT":0},{"OBJECT_NAME":"ONEWEB-0040","OBJECT_ID":"2020-008S","EPOCH":"2025-09-26T22:07:02.950752","MEAN_MOTION":13.10375116,"ECCENTRICITY":0.000158,"INCLINATION":87.8746,"RA_OF_ASC_NODE":88.7805,"ARG_OF_PERICENTER":86.9769,"MEAN_ANOMALY":273.154,"EPHEMERIS_TYPE":0,"CLASSIFICATION_TYPE":"U","NORAD_CAT_ID":45147,"ELEMENT_SET_NO":999,"REV_AT_EPOCH":27338,"BSTAR":-0.001306655,"MEAN_MOTION_DOT":-4.43e-6,"MEAN_MOTION_DDOT":0},{"OBJECT_NAME":"ONEWEB-0043","OBJECT_ID":"2020-008U","EPOCH":"2025-09-26T22:09:27.454752","MEAN_MOTION":13.10375299,"ECCENTRICITY":0.00017915,"INCLINATION":87.8742,"RA_OF_ASC_NODE":88.7624,"ARG_OF_PERICENTER":73.8319,"MEAN_ANOMALY":286.3006,"EPHEMERIS_TYPE":0,"CLASSIFICATION_TYPE":"U","NORAD_CAT_ID":45149,"ELEMENT_SET_NO":999,"REV_AT_EPOCH":27370,"BSTAR":-0.0010822158,"MEAN_MOTION_DOT":-3.65e-6,"MEAN_MOTION_DDOT":0},{"OBJECT_NAME":"ONEWEB-0044","OBJECT_ID":"2020-008V","EPOCH":"2025-09-27T13:29:45.223872","MEAN_MOTION":13.10373734,"ECCENTRICITY":0.00016905,"INCLINATION":87.8739,"RA_OF_ASC_NODE":88.6257,"ARG_OF_PERICENTER":76.9386,"MEAN_ANOMALY":283.193,"EPHEMERIS_TYPE":0,"CLASSIFICATION_TYPE":"U","NORAD_CAT_ID":45150,"ELEMENT_SET_NO":999,"REV_AT_EPOCH":27408,"BSTAR":0.0020371652,"MEAN_MOTION_DOT":7.24e-6,"MEAN_MOTION_DDOT":0},{"OBJECT_NAME":"ONEWEB-0045","OBJECT_ID":"2020-008W","EPOCH":"2025-09-27T09:32:30.505056","MEAN_MOTION":13.11418147,"ECCENTRICITY":0.0001464,"INCLINATION":87.8806,"RA_OF_ASC_NODE":73.3797,"ARG_OF_PERICENTER":90.7908,"MEAN_ANOMALY":269.3387,"EPHEMERIS_TYPE":0,"CLASSIFICATION_TYPE":"U","NORAD_CAT_ID":45151,"ELEMENT_SET_NO":999,"REV_AT_EPOCH":27596,"BSTAR":-0.0010520672,"MEAN_MOTION_DOT":-3.6e-6,"MEAN_MOTION_DDOT":0},{"OBJECT_NAME":"ONEWEB-0047","OBJECT_ID":"2020-008X","EPOCH":"2025-09-27T13:20:11.214240","MEAN_MOTION":13.10376778,"ECCENTRICITY":0.00015605,"INCLINATION":87.8743,"RA_OF_ASC_NODE":88.6373,"ARG_OF_PERICENTER":83.7222,"MEAN_ANOMALY":276.4083,"EPHEMERIS_TYPE":0,"CLASSIFICATION_TYPE":"U","NORAD_CAT_ID":45152,"ELEMENT_SET_NO":999,"REV_AT_EPOCH":27380,"BSTAR":0.0014711139,"MEAN_MOTION_DOT":5.26e-6,"MEAN_MOTION_DDOT":0},{"OBJECT_NAME":"ONEWEB-0048","OBJECT_ID":"2020-008Y","EPOCH":"2025-09-27T13:13:00.593184","MEAN_MOTION":13.10375423,"ECCENTRICITY":0.00016221,"INCLINATION":87.8746,"RA_OF_ASC_NODE":88.6643,"ARG_OF_PERICENTER":85.9061,"MEAN_ANOMALY":274.2252,"EPHEMERIS_TYPE":0,"CLASSIFICATION_TYPE":"U","NORAD_CAT_ID":45153,"ELEMENT_SET_NO":999,"REV_AT_EPOCH":27341,"BSTAR":0.00088687104,"MEAN_MOTION_DOT":3.22e-6,"MEAN_MOTION_DDOT":0},{"OBJECT_NAME":"ONEWEB-0049","OBJECT_ID":"2020-008Z","EPOCH":"2025-09-27T13:16:36.021216","MEAN_MOTION":13.10375261,"ECCENTRICITY":0.00020804,"INCLINATION":87.8744,"RA_OF_ASC_NODE":88.6551,"ARG_OF_PERICENTER":78.1496,"MEAN_ANOMALY":281.9864,"EPHEMERIS_TYPE":0,"CLASSIFICATION_TYPE":"U","NORAD_CAT_ID":45154,"ELEMENT_SET_NO":999,"REV_AT_EPOCH":27363,"BSTAR":0.0014434732,"MEAN_MOTION_DOT":5.17e-6,"MEAN_MOTION_DDOT":0},{"OBJECT_NAME":"ONEWEB-0051","OBJECT_ID":"2020-008AA","EPOCH":"2025-09-27T09:30:02.452608","MEAN_MOTION":13.11414609,"ECCENTRICITY":0.00016339,"INCLINATION":87.8785,"RA_OF_ASC_NODE":73.4166,"ARG_OF_PERICENTER":93.5508,"MEAN_ANOMALY":266.5807,"EPHEMERIS_TYPE":0,"CLASSIFICATION_TYPE":"U","NORAD_CAT_ID":45155,"ELEMENT_SET_NO":999,"REV_AT_EPOCH":27664,"BSTAR":-0.00077192711,"MEAN_MOTION_DOT":-2.61e-6,"MEAN_MOTION_DDOT":0},{"OBJECT_NAME":"ONEWEB-0052","OBJECT_ID":"2020-008AB","EPOCH":"2025-09-27T13:09:25.515072","MEAN_MOTION":13.10376904,"ECCENTRICITY":0.00021279,"INCLINATION":87.8758,"RA_OF_ASC_NODE":88.6085,"ARG_OF_PERICENTER":77.6292,"MEAN_ANOMALY":282.5074,"EPHEMERIS_TYPE":0,"CLASSIFICATION_TYPE":"U","NORAD_CAT_ID":45156,"ELEMENT_SET_NO":999,"REV_AT_EPOCH":27354,"BSTAR":0.00077680935,"MEAN_MOTION_DOT":2.84e-6,"MEAN_MOTION_DDOT":0},{"OBJECT_NAME":"ONEWEB-0053","OBJECT_ID":"2020-008AC","EPOCH":"2025-09-26T23:54:37.363392","MEAN_MOTION":13.10373914,"ECCENTRICITY":0.00013868,"INCLINATION":87.8742,"RA_OF_ASC_NODE":88.771,"ARG_OF_PERICENTER":80.1437,"MEAN_ANOMALY":279.9847,"EPHEMERIS_TYPE":0,"CLASSIFICATION_TYPE":"U","NORAD_CAT_ID":45157,"ELEMENT_SET_NO":999,"REV_AT_EPOCH":27344,"BSTAR":-0.0014632552,"MEAN_MOTION_DOT":-4.98e-6,"MEAN_MOTION_DDOT":0},{"OBJECT_NAME":"ONEWEB-0054","OBJECT_ID":"2020-008AD","EPOCH":"2025-09-27T13:34:32.091744","MEAN_MOTION":13.10372698,"ECCENTRICITY":0.00017023,"INCLINATION":87.8739,"RA_OF_ASC_NODE":88.6301,"ARG_OF_PERICENTER":88.1505,"MEAN_ANOMALY":271.9818,"EPHEMERIS_TYPE":0,"CLASSIFICATION_TYPE":"U","NORAD_CAT_ID":45158,"ELEMENT_SET_NO":999,"REV_AT_EPOCH":27363,"BSTAR":0.0018906717,"MEAN_MOTION_DOT":6.73e-6,"MEAN_MOTION_DDOT":0},{"OBJECT_NAME":"ONEWEB-0056","OBJECT_ID":"2020-008AE","EPOCH":"2025-09-27T13:07:01.802496","MEAN_MOTION":13.10376731,"ECCENTRICITY":0.00016579,"INCLINATION":87.8745,"RA_OF_ASC_NODE":88.6317,"ARG_OF_PERICENTER":86.7594,"MEAN_ANOMALY":273.3723,"EPHEMERIS_TYPE":0,"CLASSIFICATION_TYPE":"U","NORAD_CAT_ID":45159,"ELEMENT_SET_NO":999,"REV_AT_EPOCH":27378,"BSTAR":0.00035532417,"MEAN_MOTION_DOT":1.37e-6,"MEAN_MOTION_DDOT":0},{"OBJECT_NAME":"ONEWEB-0057","OBJECT_ID":"2020-008AF","EPOCH":"2025-09-27T13:17:47.928480","MEAN_MOTION":13.10375241,"ECCENTRICITY":0.00016661,"INCLINATION":87.8743,"RA_OF_ASC_NODE":88.6436,"ARG_OF_PERICENTER":80.2344,"MEAN_ANOMALY":279.8971,"EPHEMERIS_TYPE":0,"CLASSIFICATION_TYPE":"U","NORAD_CAT_ID":45160,"ELEMENT_SET_NO":999,"REV_AT_EPOCH":27395,"BSTAR":0.0010614623,"MEAN_MOTION_DOT":3.83e-6,"MEAN_MOTION_DDOT":0}]
